[{"OBJECT_NAME":"UNKNOWN","OBJECT_ID":"","EPOCH":"2026-03-07T06:53:38.252256","MEAN_MOTION":14.58942563,"ECCENTRICITY":0.005669,"INCLINATION":74.0089,"RA_OF_ASC_NODE":179.2804,"ARG_OF_PERICENTER":321.9408,"MEAN_ANOMALY":37.7757,"EPHEMERIS_TYPE":0,"CLASSIFICATION_TYPE":"U","NORAD_CAT_ID":82432,"ELEMENT_SET_NO":999,"REV_AT_EPOCH":49523,"BSTAR":0.00056373,"MEAN_MOTION_DOT":2.673e-5,"MEAN_MOTION_DDOT":0},{"OBJECT_NAME":"UNKNOWN","OBJECT_ID":"","EPOCH":"2026-03-07T16:41:41.743392","MEAN_MOTION":15.0507428,"ECCENTRICITY":0.0006664,"INCLINATION":85.8737,"RA_OF_ASC_NODE":153.9139,"ARG_OF_PERICENTER":326.6675,"MEAN_ANOMALY":33.4139,"EPHEMERIS_TYPE":0,"CLASSIFICATION_TYPE":"U","NORAD_CAT_ID":82448,"ELEMENT_SET_NO":999,"REV_AT_EPOCH":44981,"BSTAR":0.00062595,"MEAN_MOTION_DOT":8.933e-5,"MEAN_MOTION_DDOT":0},{"OBJECT_NAME":"UNKNOWN","OBJECT_ID":"","EPOCH":"2026-03-07T07:50:46.515264","MEAN_MOTION":12.39710322,"ECCENTRICITY":0.0094148,"INCLINATION":102.192,"RA_OF_ASC_NODE":27.6779,"ARG_OF_PERICENTER":51.079,"MEAN_ANOMALY":309.8621,"EPHEMERIS_TYPE":0,"CLASSIFICATION_TYPE":"U","NORAD_CAT_ID":82453,"ELEMENT_SET_NO":999,"REV_AT_EPOCH":55654,"BSTAR":0.0004713,"MEAN_MOTION_DOT":1.8e-7,"MEAN_MOTION_DDOT":0},{"OBJECT_NAME":"UNKNOWN","OBJECT_ID":"","EPOCH":"2026-03-07T00:23:02.070816","MEAN_MOTION":13.55831722,"ECCENTRICITY":0.0044139,"INCLINATION":99.3511,"RA_OF_ASC_NODE":88.2924,"ARG_OF_PERICENTER":341.8068,"MEAN_ANOMALY":18.149,"EPHEMERIS_TYPE":0,"CLASSIFICATION_TYPE":"U","NORAD_CAT_ID":82484,"ELEMENT_SET_NO":999,"REV_AT_EPOCH":60205,"BSTAR":0.00033696,"MEAN_MOTION_DOT":1.95e-6,"MEAN_MOTION_DDOT":0},{"OBJECT_NAME":"UNKNOWN","OBJECT_ID":"","EPOCH":"2026-03-08T09:26:42.911808","MEAN_MOTION":14.89862793,"ECCENTRICITY":0.0006539,"INCLINATION":74.0048,"RA_OF_ASC_NODE":210.6958,"ARG_OF_PERICENTER":333.5088,"MEAN_ANOMALY":26.5758,"EPHEMERIS_TYPE":0,"CLASSIFICATION_TYPE":"U","NORAD_CAT_ID":82494,"ELEMENT_SET_NO":999,"REV_AT_EPOCH":9770,"BSTAR":0.0040962,"MEAN_MOTION_DOT":0.00039583,"MEAN_MOTION_DDOT":0},{"OBJECT_NAME":"UNKNOWN","OBJECT_ID":"","EPOCH":"2026-02-26T18:17:59.837568","MEAN_MOTION":14.19147272,"ECCENTRICITY":0.0118063,"INCLINATION":70.965,"RA_OF_ASC_NODE":202.8689,"ARG_OF_PERICENTER":358.4355,"MEAN_ANOMALY":1.6382,"EPHEMERIS_TYPE":0,"CLASSIFICATION_TYPE":"U","NORAD_CAT_ID":82500,"ELEMENT_SET_NO":999,"REV_AT_EPOCH":62973,"BSTAR":0.001353,"MEAN_MOTION_DOT":2.989e-5,"MEAN_MOTION_DDOT":0},{"OBJECT_NAME":"UNKNOWN","OBJECT_ID":"","EPOCH":"2026-03-09T06:46:15.504960","MEAN_MOTION":14.3604467,"ECCENTRICITY":0.0131941,"INCLINATION":73.2821,"RA_OF_ASC_NODE":15.628,"ARG_OF_PERICENTER":141.5737,"MEAN_ANOMALY":8.6286,"EPHEMERIS_TYPE":0,"CLASSIFICATION_TYPE":"U","NORAD_CAT_ID":82524,"ELEMENT_SET_NO":999,"REV_AT_EPOCH":58945,"BSTAR":0.0010101,"MEAN_MOTION_DOT":3.213e-5,"MEAN_MOTION_DDOT":0},{"OBJECT_NAME":"UNKNOWN","OBJECT_ID":"","EPOCH":"2026-03-07T04:31:16.399200","MEAN_MOTION":13.41193905,"ECCENTRICITY":0.0238397,"INCLINATION":99.7799,"RA_OF_ASC_NODE":151.8941,"ARG_OF_PERICENTER":35.0928,"MEAN_ANOMALY":355.2182,"EPHEMERIS_TYPE":0,"CLASSIFICATION_TYPE":"U","NORAD_CAT_ID":82529,"ELEMENT_SET_NO":999,"REV_AT_EPOCH":60106,"BSTAR":0.00063177,"MEAN_MOTION_DOT":3.72e-6,"MEAN_MOTION_DDOT":0},{"OBJECT_NAME":"UNKNOWN","OBJECT_ID":"","EPOCH":"2026-02-28T08:19:35.642784","MEAN_MOTION":13.90885057,"ECCENTRICITY":0.0011177,"INCLINATION":99.9959,"RA_OF_ASC_NODE":12.6774,"ARG_OF_PERICENTER":93.7672,"MEAN_ANOMALY":58.5374,"EPHEMERIS_TYPE":0,"CLASSIFICATION_TYPE":"U","NORAD_CAT_ID":82560,"ELEMENT_SET_NO":999,"REV_AT_EPOCH":62265,"BSTAR":0.0010557,"MEAN_MOTION_DOT":1.272e-5,"MEAN_MOTION_DDOT":0},{"OBJECT_NAME":"UNKNOWN","OBJECT_ID":"","EPOCH":"2026-03-07T01:22:55.877088","MEAN_MOTION":14.36124034,"ECCENTRICITY":0.0098448,"INCLINATION":66.7677,"RA_OF_ASC_NODE":285.9003,"ARG_OF_PERICENTER":248.7151,"MEAN_ANOMALY":110.3417,"EPHEMERIS_TYPE":0,"CLASSIFICATION_TYPE":"U","NORAD_CAT_ID":82597,"ELEMENT_SET_NO":999,"REV_AT_EPOCH":64108,"BSTAR":0.00050521,"MEAN_MOTION_DOT":1.468e-5,"MEAN_MOTION_DDOT":0},{"OBJECT_NAME":"UNKNOWN","OBJECT_ID":"","EPOCH":"2026-03-08T00:57:02.821536","MEAN_MOTION":14.49540211,"ECCENTRICITY":0.0038347,"INCLINATION":74.0251,"RA_OF_ASC_NODE":83.514,"ARG_OF_PERICENTER":3.5421,"MEAN_ANOMALY":356.6003,"EPHEMERIS_TYPE":0,"CLASSIFICATION_TYPE":"U","NORAD_CAT_ID":82617,"ELEMENT_SET_NO":999,"REV_AT_EPOCH":64918,"BSTAR":0.0002325,"MEAN_MOTION_DOT":8.72e-6,"MEAN_MOTION_DDOT":0},{"OBJECT_NAME":"UNKNOWN","OBJECT_ID":"","EPOCH":"2026-03-05T18:48:55.282752","MEAN_MOTION":13.16435767,"ECCENTRICITY":0.0016249,"INCLINATION":82.4776,"RA_OF_ASC_NODE":189.4112,"ARG_OF_PERICENTER":239.19,"MEAN_ANOMALY":274.5257,"EPHEMERIS_TYPE":0,"CLASSIFICATION_TYPE":"U","NORAD_CAT_ID":82627,"ELEMENT_SET_NO":999,"REV_AT_EPOCH":58975,"BSTAR":0.0017379,"MEAN_MOTION_DOT":6.75e-6,"MEAN_MOTION_DDOT":0},{"OBJECT_NAME":"UNKNOWN","OBJECT_ID":"","EPOCH":"2026-03-03T13:11:43.764576","MEAN_MOTION":14.07579066,"ECCENTRICITY":0.0136834,"INCLINATION":98.9746,"RA_OF_ASC_NODE":337.5622,"ARG_OF_PERICENTER":11.2481,"MEAN_ANOMALY":349.1694,"EPHEMERIS_TYPE":0,"CLASSIFICATION_TYPE":"U","NORAD_CAT_ID":82642,"ELEMENT_SET_NO":999,"REV_AT_EPOCH":62750,"BSTAR":0.0018738,"MEAN_MOTION_DOT":3.4e-5,"MEAN_MOTION_DDOT":0},{"OBJECT_NAME":"UNKNOWN","OBJECT_ID":"","EPOCH":"2026-03-09T03:11:42.915840","MEAN_MOTION":14.20399851,"ECCENTRICITY":0.0211149,"INCLINATION":98.1596,"RA_OF_ASC_NODE":135.5724,"ARG_OF_PERICENTER":142.7742,"MEAN_ANOMALY":218.8289,"EPHEMERIS_TYPE":0,"CLASSIFICATION_TYPE":"U","NORAD_CAT_ID":82683,"ELEMENT_SET_NO":999,"REV_AT_EPOCH":47453,"BSTAR":0.00069243,"MEAN_MOTION_DOT":1.817e-5,"MEAN_MOTION_DDOT":0},{"OBJECT_NAME":"UNKNOWN","OBJECT_ID":"","EPOCH":"2026-03-01T17:44:45.331584","MEAN_MOTION":13.69982439,"ECCENTRICITY":0.0038683,"INCLINATION":100.5288,"RA_OF_ASC_NODE":36.5327,"ARG_OF_PERICENTER":187.1107,"MEAN_ANOMALY":172.9491,"EPHEMERIS_TYPE":0,"CLASSIFICATION_TYPE":"U","NORAD_CAT_ID":82693,"ELEMENT_SET_NO":999,"REV_AT_EPOCH":56457,"BSTAR":0.0030752,"MEAN_MOTION_DOT":2.664e-5,"MEAN_MOTION_DDOT":0},{"OBJECT_NAME":"UNKNOWN","OBJECT_ID":"","EPOCH":"2026-03-08T14:37:33.706560","MEAN_MOTION":13.29877454,"ECCENTRICITY":0.0688369,"INCLINATION":61.6088,"RA_OF_ASC_NODE":280.4329,"ARG_OF_PERICENTER":321.6687,"MEAN_ANOMALY":33.7235,"EPHEMERIS_TYPE":0,"CLASSIFICATION_TYPE":"U","NORAD_CAT_ID":82698,"ELEMENT_SET_NO":999,"REV_AT_EPOCH":54979,"BSTAR":0.00078062,"MEAN_MOTION_DOT":1.279e-5,"MEAN_MOTION_DDOT":0},{"OBJECT_NAME":"UNKNOWN","OBJECT_ID":"","EPOCH":"2026-03-07T19:51:24.871680","MEAN_MOTION":12.90740874,"ECCENTRICITY":0.006036,"INCLINATION":102.1673,"RA_OF_ASC_NODE":283.2292,"ARG_OF_PERICENTER":111.1215,"MEAN_ANOMALY":249.6342,"EPHEMERIS_TYPE":0,"CLASSIFICATION_TYPE":"U","NORAD_CAT_ID":82708,"ELEMENT_SET_NO":999,"REV_AT_EPOCH":53449,"BSTAR":0.0043296,"MEAN_MOTION_DOT":1.101e-5,"MEAN_MOTION_DDOT":0}]
