UNKNOWN                 
1 82432U          26066.28724829  .00002673  00000+0  56373-3 0  9995
2 82432  74.0089 179.2804 0056690 321.9408  37.7757 14.58942563495239
UNKNOWN                 
1 82448U          26066.69562203  .00008933  00000+0  62595-3 0  9991
2 82448  85.8737 153.9139 0006664 326.6675  33.4139 15.05074280449815
UNKNOWN                 
1 82453U          26066.32692726  .00000018  00000+0  47130-3 0  9995
2 82453 102.1920  27.6779 0094148  51.0790 309.8621 12.39710322556549
UNKNOWN                 
1 82484U          26066.01599619  .00000195  00000+0  33696-3 0  9990
2 82484  99.3511  88.2924 0044139 341.8068  18.1490 13.55831722602053
UNKNOWN                 
1 82494U          26067.39355222  .00039583  00000+0  40962-2 0  9999
2 82494  74.0048 210.6958 0006539 333.5088  26.5758 14.89862793 97709
UNKNOWN                 
1 82500U          26057.76249812  .00002989  00000+0  13530-2 0  9995
2 82500  70.9650 202.8689 0118063 358.4355   1.6382 14.19147272629736
UNKNOWN                 
1 82524U          26068.28212390  .00003213  00000+0  10101-2 0  9993
2 82524  73.2821  15.6280 0131941 141.5737   8.6286 14.36044670589451
UNKNOWN                 
1 82529U          26066.18838425  .00000372  00000+0  63177-3 0  9993
2 82529  99.7799 151.8941 0238397  35.0928 355.2182 13.41193905601061
UNKNOWN                 
1 82560U          26059.34694031  .00001272  00000+0  10557-2 0  9994
2 82560  99.9959  12.6774 0011177  93.7672  58.5374 13.90885057622650
UNKNOWN                 
1 82597U          26066.05759117  .00001468  00000+0  50521-3 0  9990
2 82597  66.7677 285.9003 0098448 248.7151 110.3417 14.36124034641084
UNKNOWN                 
1 82617U          26067.03961599  .00000872  00000+0  23250-3 0  9998
2 82617  74.0251  83.5140 0038347   3.5421 356.6003 14.49540211649188
UNKNOWN                 
1 82627U          26064.78397318  .00000675  00000+0  17379-2 0  9995
2 82627  82.4776 189.4112 0016249 239.1900 274.5257 13.16435767589752
UNKNOWN                 
1 82642U          26062.54981209  .00003400  00000+0  18738-2 0  9991
2 82642  98.9746 337.5622 0136834  11.2481 349.1694 14.07579066627508
UNKNOWN                 
1 82683U          26068.13313560  .00001817  00000+0  69243-3 0  9994
2 82683  98.1596 135.5724 0211149 142.7742 218.8289 14.20399851474532
UNKNOWN                 
1 82693U          26060.73941356  .00002664  00000+0  30752-2 0  9996
2 82693 100.5288  36.5327 0038683 187.1107 172.9491 13.69982439564577
UNKNOWN                 
1 82698U          26067.60941790  .00001279  00000+0  78062-3 0  9994
2 82698  61.6088 280.4329 0688369 321.6687  33.7235 13.29877454549792
UNKNOWN                 
1 82708U          26066.82737120  .00001101  00000+0  43296-2 0  9993
2 82708 102.1673 283.2292 0060360 111.1215 249.6342 12.90740874534499
